OBJECT_NAME,OBJECT_ID,EPOCH,MEAN_MOTION,ECCENTRICITY,INCLINATION,RA_OF_ASC_NODE,ARG_OF_PERICENTER,MEAN_ANOMALY,EPHEMERIS_TYPE,CLASSIFICATION_TYPE,NORAD_CAT_ID,ELEMENT_SET_NO,REV_AT_EPOCH,BSTAR,MEAN_MOTION_DOT,MEAN_MOTION_DDOT
ONEWEB-0053,2020-008AC,2026-07-16T23:30:21.066336,13.10373763,.00014567,87.8815,30.3453,77.5507,282.5783,0,U,45157,999,31181,.1592512E-2,.569E-5,0
ONEWEB-0054,2020-008AD,2026-07-16T13:21:55.121472,13.10373414,.00018575,87.8816,30.4155,86.2918,273.8422,0,U,45158,999,31187,-.13441431E-2,-.457E-5,0
ONEWEB-0056,2020-008AE,2026-07-16T23:39:55.501920,13.10372354,.00020836,87.8822,30.3233,84.4122,275.7243,0,U,45159,999,31208,.1957835E-2,.696E-5,0
ONEWEB-0057,2020-008AF,2026-07-17T05:34:37.028064,13.10369119,.00015033,87.8816,30.2858,74.1637,285.9656,0,U,45160,999,31228,.26021848E-3,.103E-5,0
ONEWEB-0058,2020-008AG,2026-07-16T21:55:46.532928,13.10373497,.00019244,87.8811,30.3529,96.7431,263.3915,0,U,45161,999,31231,.17778911E-2,.633E-5,0
ONEWEB-0059,2020-008AH,2026-07-16T23:40:21.570528,13.10373600,.00015724,87.8816,30.3380,88.8853,271.2455,0,U,45162,999,31222,.1973734E-2,.702E-5,0
ONEWEB-0062,2020-008AJ,2026-07-17T05:43:59.326176,13.10369226,.00020833,87.8817,30.2775,95.0231,265.1135,0,U,45163,999,31212,-.66553762E-3,-.22E-5,0
ONEWEB-0065,2020-008AK,2026-07-17T06:32:50.545536,13.10376426,.0001803,87.8823,30.2785,78.1688,281.9642,0,U,45164,999,31182,-.80054124E-3,-.267E-5,0
ONEWEB-0066,2020-020A,2026-07-17T04:58:56.064576,13.11420054,.00017367,87.8882,15.0922,94.8705,265.2621,0,U,45424,999,30661,-.15124756E-2,-.523E-5,0
ONEWEB-0067,2020-020B,2026-07-17T05:53:16.403136,13.11425775,.00017334,87.8905,15.0127,86.6499,273.4827,0,U,45425,999,30667,.11583052E-2,.423E-5,0
ONEWEB-0080,2020-020C,2026-07-17T05:52:55.010496,13.11417120,.00021144,87.8895,15.0846,97.3231,262.8138,0,U,45426,999,30664,.10073337E-2,.37E-5,0
ONEWEB-0090,2020-020D,2026-07-16T23:14:55.441536,13.11415304,.00019171,87.8893,15.1435,93.0229,267.1119,0,U,45427,999,30657,-.67705444E-3,-.227E-5,0
ONEWEB-0061,2020-020E,2026-07-17T00:00:54.946944,13.11418631,.00018442,87.8892,15.1215,92.1059,268.0280,0,U,45428,999,30653,-.16788518E-3,-.47E-6,0
ONEWEB-0081,2020-020F,2026-07-16T23:34:15.033216,13.11416850,.00016322,87.8888,15.1342,90.9859,269.1456,0,U,45429,999,30664,-.13794058E-2,-.476E-5,0
ONEWEB-0069,2020-020G,2026-07-17T05:06:29.056320,13.11418334,.00016432,87.8891,15.0919,94.0316,266.0999,0,U,45430,999,30660,-.18291954E-2,-.636E-5,0
ONEWEB-0031,2020-020H,2026-07-16T22:38:08.306880,13.11418109,.00019949,87.8882,15.1484,94.8327,265.3029,0,U,45431,999,30655,.14664629E-2,.532E-5,0
ONEWEB-0027,2020-020J,2026-07-16T22:50:58.597440,13.17652018,.00022897,87.9147,359.9439,92.7229,267.4164,0,U,45432,999,31027,-.13851903E-4,.8E-7,0
ONEWEB-0064,2020-020K,2026-07-17T05:55:08.795712,13.11416409,.00020378,87.8887,15.0809,92.1074,268.0287,0,U,45433,999,30662,.13274789E-2,.483E-5,0
ONEWEB-0018,2020-020L,2026-07-17T04:51:26.565984,13.11415176,.00016766,87.8886,15.0893,102.8689,257.2626,0,U,45434,999,30656,-.1155146E-2,-.397E-5,0
ONEWEB-0083,2020-020M,2026-07-16T23:07:36.215040,13.11415143,.00018915,87.8892,15.1319,92.1568,267.9777,0,U,45435,999,30657,-.77478512E-4,-.15E-6,0
ONEWEB-0095,2020-020N,2026-07-16T22:55:24.183264,13.11414618,.00022793,87.8892,15.1426,76.0919,284.0462,0,U,45436,999,30657,.96572726E-3,.355E-5,0
ONEWEB-0092,2020-020P,2026-07-17T05:08:57.170976,13.11413779,.00017323,87.8891,15.0819,96.5758,263.5567,0,U,45437,999,30672,-.18163278E-2,-.631E-5,0
ONEWEB-0085,2020-020Q,2026-07-16T12:07:59.951136,13.11415533,.0001869,87.8885,15.2282,89.8606,270.2736,0,U,45438,999,30651,-.17916394E-3,-.51E-6,0
ONEWEB-0096,2020-020R,2026-07-16T23:09:50.516064,13.11414582,.00019309,87.8891,15.1343,88.5405,271.5944,0,U,45439,999,30656,-.20119745E-3,-.59E-6,0
ONEWEB-0037,2020-020S,2026-07-16T12:48:27.579456,13.11416732,.00019782,87.8903,15.1936,86.7245,273.4109,0,U,45440,999,30654,-.82466733E-3,-.28E-5,0
ONEWEB-0042,2020-020T,2026-07-16T21:05:08.530944,13.11415827,.00017515,87.8892,15.1481,90.2278,269.9051,0,U,45441,999,30655,.98867601E-3,.363E-5,0
ONEWEB-0098,2020-020U,2026-07-17T06:08:34.301184,13.11414204,.00019183,87.8890,15.0817,93.1148,267.0199,0,U,45442,999,30658,.12717854E-2,.463E-5,0
ONEWEB-0055,2020-020V,2026-07-17T00:08:15.288864,13.11418578,.0001924,87.8893,15.1306,91.8363,268.2985,0,U,45443,999,30652,.61071405E-3,.229E-5,0
ONEWEB-0093,2020-020W,2026-07-16T12:51:00.974016,13.10895514,.00015229,87.8895,15.2212,89.9122,270.2181,0,U,45444,999,30652,-.85297996E-3,-.287E-5,0
ONEWEB-0029,2020-020X,2026-07-17T05:48:01.947744,13.11416769,.00016115,87.8885,15.0836,93.2628,266.8685,0,U,45445,999,30659,.97733497E-3,.359E-5,0
